location_id,project_id,location_name,location_title,latitude,longitude,country,prefecture,city,field_type,soil_category,institute_name,fermer_name,farmer_address,farmer_phone_number
LOC-P001-L001,PRJ-P001,,,35.6,140.3,Japan,Chiba,Ichikawa,upland,D6(allophanic Andosol),,,,
LOC-P001-L002,PRJ-P001,,,35.6,140.3,Japan,Chiba,Ichikawa,upland,D6(allophanic Andosol),,,,
LOC-P001-L003,PRJ-P001,,,35.6,140.3,Japan,Chiba,Ichikawa,upland,D6(allophanic Andosol),,,,
LOC-P001-L004,PRJ-P001,,,35.6,140.3,Japan,Chiba,Ichikawa,upland,D6(allophanic Andosol),,,,
LOC-P001-L005,PRJ-P001,,,35.6,140.3,Japan,Chiba,Ichikawa,upland,D6(allophanic Andosol),,,,
LOC-P001-L006,PRJ-P001,,,35.6,140.3,Japan,Chiba,Ichikawa,upland,D6(allophanic Andosol),,,,
LOC-P001-L007,PRJ-P001,,,35.6,140.3,Japan,Chiba,Ichikawa,upland,D6(allophanic Andosol),,,,
LOC-P001-L008,PRJ-P001,,,35.6,140.3,Japan,Chiba,Ichikawa,upland,D6(allophanic Andosol),,,,
LOC-P001-L009,PRJ-P001,,,35.6,140.3,Japan,Chiba,Ichikawa,upland,D6(allophanic Andosol),,,,
LOC-P001-L010,PRJ-P001,,,35.6,140.3,Japan,Chiba,Ichikawa,upland,D6(allophanic Andosol),,,,
LOC-P001-L011,PRJ-P001,,,35.6,140.3,Japan,Chiba,Ichikawa,upland,D6(allophanic Andosol),,,,
LOC-P001-L012,PRJ-P001,,,35.6,140.3,Japan,Chiba,Ichikawa,upland,D6(allophanic Andosol),,,,
LOC-P001-L013,PRJ-P001,,,35.6,140.3,Japan,Chiba,Ichikawa,upland,D6(allophanic Andosol),,,,
LOC-P001-L014,PRJ-P001,,,35.6,140.3,Japan,Chiba,Ichikawa,upland,D6(allophanic Andosol),,,,
LOC-P001-L015,PRJ-P001,,,35.6,140.3,Japan,Chiba,Ichikawa,upland,D6(allophanic Andosol),,,,
LOC-P001-L016,PRJ-P001,,,35.6,140.3,Japan,Chiba,Ichikawa,upland,D6(allophanic Andosol),,,,
LOC-P002-L001,PRJ-P002,Sol.Bl0.01,,35.88351,137.97157,Japan,Nagano,Ina,upland,D6(allophanic Andosol),,,,
LOC-P002-L002,PRJ-P002,Sol.Bl0.02,,35.88351,137.97157,Japan,Nagano,Ina,upland,D5(non-allophanic Andosol),,,,
LOC-P002-L003,PRJ-P002,Sol.Non.03,,35.88351,137.97157,Japan,Nagano,Ina,upland,D5(non-allophanic Andosol),,,,
LOC-P002-L004,PRJ-P002,Sol.Non.04,,35.88351,137.97157,Japan,Nagano,Ina,upland,D5(non-allophanic Andosol),,,,
LOC-P002-L005,PRJ-P002,Sol.Bl2.05,,35.88351,137.97157,Japan,Nagano,Ina,upland,D5(non-allophanic Andosol),,,,
LOC-P002-L006,PRJ-P002,Sol.Bl2.06,,35.88351,137.97157,Japan,Nagano,Ina,upland,D5(non-allophanic Andosol),,,,
LOC-P002-L007,PRJ-P002,Sol.Che.07,,35.88351,137.97157,Japan,Nagano,Ina,upland,D5(non-allophanic Andosol),,,,
LOC-P002-L008,PRJ-P002,Sol.Che.08,,35.88351,137.97157,Japan,Nagano,Ina,upland,D5(non-allophanic Andosol),,,,
LOC-P002-L009,PRJ-P002,Sol.Bl0.09,,35.88351,137.97157,Japan,Nagano,Ina,upland,D5(non-allophanic Andosol),,,,
LOC-P002-L010,PRJ-P002,Sol.Bl0.10,,35.88351,137.97157,Japan,Nagano,Ina,upland,D5(non-allophanic Andosol),,,,
LOC-P002-L011,PRJ-P002,Sol.Bl3.11,,35.88351,137.97157,Japan,Nagano,Ina,upland,D5(non-allophanic Andosol),,,,
LOC-P002-L012,PRJ-P002,Sol.Bl3.12,,35.88351,137.97157,Japan,Nagano,Ina,upland,D5(non-allophanic Andosol),,,,
LOC-P002-L013,PRJ-P002,Sol.Bl1.13,,35.88351,137.97157,Japan,Nagano,Ina,upland,D5(non-allophanic Andosol),,,,
LOC-P002-L014,PRJ-P002,Sol.Bl1.14,,35.88351,137.97157,Japan,Nagano,Ina,upland,D5(non-allophanic Andosol),,,,
LOC-P002-L015,PRJ-P002,Sol.Bl2.15,,35.88351,137.97157,Japan,Nagano,Ina,upland,D5(non-allophanic Andosol),,,,
LOC-P002-L016,PRJ-P002,Sol.Bl2.16,,35.88351,137.97157,Japan,Nagano,Ina,upland,D5(non-allophanic Andosol),,,,
LOC-P002-L017,PRJ-P002,Sol.Bl3.17,,35.88351,137.97157,Japan,Nagano,Ina,upland,D5(non-allophanic Andosol),,,,
LOC-P002-L018,PRJ-P002,Sol.Bl3.18,,35.88351,137.97157,Japan,Nagano,Ina,upland,D5(non-allophanic Andosol),,,,
LOC-P002-L019,PRJ-P002,Sol.Non.19,,35.88351,137.97157,Japan,Nagano,Ina,upland,D5(non-allophanic Andosol),,,,
LOC-P002-L020,PRJ-P002,Sol.Non.20,,35.88351,137.97157,Japan,Nagano,Ina,upland,D5(non-allophanic Andosol),,,,
LOC-P002-L021,PRJ-P002,Sol.Che.21,,35.88351,137.97157,Japan,Nagano,Ina,upland,D5(non-allophanic Andosol),,,,
LOC-P002-L022,PRJ-P002,Sol.Che.22,,35.88351,137.97157,Japan,Nagano,Ina,upland,D5(non-allophanic Andosol),,,,
LOC-P002-L023,PRJ-P002,Sol.Bl1.23,,35.88351,137.97157,Japan,Nagano,Ina,upland,D5(non-allophanic Andosol),,,,
LOC-P002-L024,PRJ-P002,Sol.Bl1.24,,35.88351,137.97157,Japan,Nagano,Ina,upland,D5(non-allophanic Andosol),,,,
LOC-P002-L025,PRJ-P002,Non.Che.25,,35.88351,137.97157,Japan,Nagano,Ina,upland,D5(non-allophanic Andosol),,,,
LOC-P002-L026,PRJ-P002,Non.Che.26,,35.88351,137.97157,Japan,Nagano,Ina,upland,D5(non-allophanic Andosol),,,,
LOC-P002-L027,PRJ-P002,Non.Bl2.27,,35.88351,137.97157,Japan,Nagano,Ina,upland,D5(non-allophanic Andosol),,,,
LOC-P002-L028,PRJ-P002,Non.Bl2.28,,35.88351,137.97157,Japan,Nagano,Ina,upland,D5(non-allophanic Andosol),,,,
LOC-P002-L029,PRJ-P002,Non.Bl3.29,,35.88351,137.97157,Japan,Nagano,Ina,upland,D5(non-allophanic Andosol),,,,
LOC-P002-L030,PRJ-P002,Non.Bl3.30,,35.88351,137.97157,Japan,Nagano,Ina,upland,D5(non-allophanic Andosol),,,,
LOC-P002-L031,PRJ-P002,Non.Bl1.31,,35.88351,137.97157,Japan,Nagano,Ina,upland,D5(non-allophanic Andosol),,,,
LOC-P002-L032,PRJ-P002,Non.Bl1.32,,35.88351,137.97157,Japan,Nagano,Ina,upland,D5(non-allophanic Andosol),,,,
LOC-P002-L033,PRJ-P002,Non.Che.33,,35.88351,137.97157,Japan,Nagano,Ina,upland,D5(non-allophanic Andosol),,,,
LOC-P002-L034,PRJ-P002,Non.Che.34,,35.88351,137.97157,Japan,Nagano,Ina,upland,D5(non-allophanic Andosol),,,,
LOC-P002-L035,PRJ-P002,Non.Bl1.35,,35.88351,137.97157,Japan,Nagano,Ina,upland,D5(non-allophanic Andosol),,,,
LOC-P002-L036,PRJ-P002,Non.Bl1.36,,35.88351,137.97157,Japan,Nagano,Ina,upland,D5(non-allophanic Andosol),,,,
LOC-P002-L037,PRJ-P002,Non.Bl0.37,,35.88351,137.97157,Japan,Nagano,Ina,upland,D5(non-allophanic Andosol),,,,
LOC-P002-L038,PRJ-P002,Non.Bl0.38,,35.88351,137.97157,Japan,Nagano,Ina,upland,D5(non-allophanic Andosol),,,,
LOC-P002-L039,PRJ-P002,Non.Bl0.39,,35.88351,137.97157,Japan,Nagano,Ina,upland,D5(non-allophanic Andosol),,,,
LOC-P002-L040,PRJ-P002,Non.Bl0.40,,35.88351,137.97157,Japan,Nagano,Ina,upland,D5(non-allophanic Andosol),,,,
LOC-P002-L041,PRJ-P002,Non.Bl2.41,,35.88351,137.97157,Japan,Nagano,Ina,upland,D5(non-allophanic Andosol),,,,
LOC-P002-L042,PRJ-P002,Non.Bl2.42,,35.88351,137.97157,Japan,Nagano,Ina,upland,D5(non-allophanic Andosol),,,,
LOC-P002-L043,PRJ-P002,Non.Bl3.43,,35.88351,137.97157,Japan,Nagano,Ina,upland,D5(non-allophanic Andosol),,,,
LOC-P002-L044,PRJ-P002,Non.Bl3.44,,35.88351,137.97157,Japan,Nagano,Ina,upland,D5(non-allophanic Andosol),,,,
LOC-P002-L045,PRJ-P002,Non.Non.45,,35.88351,137.97157,Japan,Nagano,Ina,upland,D5(non-allophanic Andosol),,,,
LOC-P002-L046,PRJ-P002,Non.Non.46,,35.88351,137.97157,Japan,Nagano,Ina,upland,D5(non-allophanic Andosol),,,,
LOC-P002-L047,PRJ-P002,Non.Non.47,,35.88351,137.97157,Japan,Nagano,Ina,upland,D5(non-allophanic Andosol),,,,
LOC-P002-L048,PRJ-P002,Non.Non.48,,35.88351,137.97157,Japan,Nagano,Ina,upland,D5(non-allophanic Andosol),,,,
LOC-P002-L049,PRJ-P002,Sol.Bl0.49,,35.88351,137.97157,Japan,Nagano,Ina,upland,D5(non-allophanic Andosol),,,,
LOC-P002-L050,PRJ-P002,Sol.Bl0.50,,35.88351,137.97157,Japan,Nagano,Ina,upland,D5(non-allophanic Andosol),,,,
LOC-P002-L051,PRJ-P002,Sol.Bl0.51,,35.88351,137.97157,Japan,Nagano,Ina,upland,D5(non-allophanic Andosol),,,,
LOC-P002-L052,PRJ-P002,Sol.Bl0.52,,35.88351,137.97157,Japan,Nagano,Ina,upland,D5(non-allophanic Andosol),,,,
LOC-P002-L053,PRJ-P002,Sol.Non.53,,35.88351,137.97157,Japan,Nagano,Ina,upland,D5(non-allophanic Andosol),,,,
LOC-P002-L054,PRJ-P002,Sol.Non.54,,35.88351,137.97157,Japan,Nagano,Ina,upland,D5(non-allophanic Andosol),,,,
LOC-P002-L055,PRJ-P002,Sol.Bl1.55,,35.88351,137.97157,Japan,Nagano,Ina,upland,D5(non-allophanic Andosol),,,,
LOC-P002-L056,PRJ-P002,Sol.Bl1.56,,35.88351,137.97157,Japan,Nagano,Ina,upland,D5(non-allophanic Andosol),,,,
LOC-P002-L057,PRJ-P002,Sol.Non.57,,35.88351,137.97157,Japan,Nagano,Ina,upland,D5(non-allophanic Andosol),,,,
LOC-P002-L058,PRJ-P002,Sol.Non.58,,35.88351,137.97157,Japan,Nagano,Ina,upland,D5(non-allophanic Andosol),,,,
LOC-P002-L059,PRJ-P002,Sol.Bl3.59,,35.88351,137.97157,Japan,Nagano,Ina,upland,D5(non-allophanic Andosol),,,,
LOC-P002-L060,PRJ-P002,Sol.Bl3.60,,35.88351,137.97157,Japan,Nagano,Ina,upland,D5(non-allophanic Andosol),,,,
LOC-P002-L061,PRJ-P002,Sol.Bl2.61,,35.88351,137.97157,Japan,Nagano,Ina,upland,D5(non-allophanic Andosol),,,,
LOC-P002-L062,PRJ-P002,Sol.Bl2.62,,35.88351,137.97157,Japan,Nagano,Ina,upland,D5(non-allophanic Andosol),,,,
LOC-P002-L063,PRJ-P002,Sol.Bl3.63,,35.88351,137.97157,Japan,Nagano,Ina,upland,D5(non-allophanic Andosol),,,,
LOC-P002-L064,PRJ-P002,Sol.Bl3.64,,35.88351,137.97157,Japan,Nagano,Ina,upland,D5(non-allophanic Andosol),,,,
LOC-P002-L065,PRJ-P002,Sol.Che.65,,35.88351,137.97157,Japan,Nagano,Ina,upland,D5(non-allophanic Andosol),,,,
LOC-P002-L066,PRJ-P002,Sol.Che.66,,35.88351,137.97157,Japan,Nagano,Ina,upland,D5(non-allophanic Andosol),,,,
LOC-P002-L067,PRJ-P002,Sol.Che.67,,35.88351,137.97157,Japan,Nagano,Ina,upland,D5(non-allophanic Andosol),,,,
LOC-P002-L068,PRJ-P002,Sol.Che.68,,35.88351,137.97157,Japan,Nagano,Ina,upland,D5(non-allophanic Andosol),,,,
LOC-P002-L069,PRJ-P002,Sol.Bl1.69,,35.88351,137.97157,Japan,Nagano,Ina,upland,D5(non-allophanic Andosol),,,,
LOC-P002-L070,PRJ-P002,Sol.Bl1.70,,35.88351,137.97157,Japan,Nagano,Ina,upland,D5(non-allophanic Andosol),,,,
LOC-P002-L071,PRJ-P002,Sol.Bl2.71,,35.88351,137.97157,Japan,Nagano,Ina,upland,D5(non-allophanic Andosol),,,,
LOC-P002-L072,PRJ-P002,Sol.Bl2.72,,35.88351,137.97157,Japan,Nagano,Ina,upland,D5(non-allophanic Andosol),,,,
LOC-P002-L073,PRJ-P002,Non.Bl1.73,,35.88351,137.97157,Japan,Nagano,Ina,upland,D5(non-allophanic Andosol),,,,
LOC-P002-L074,PRJ-P002,Non.Bl1.74,,35.88351,137.97157,Japan,Nagano,Ina,upland,D5(non-allophanic Andosol),,,,
LOC-P002-L075,PRJ-P002,Non.Bl2.75,,35.88351,137.97157,Japan,Nagano,Ina,upland,D5(non-allophanic Andosol),,,,
LOC-P002-L076,PRJ-P002,Non.Bl2.76,,35.88351,137.97157,Japan,Nagano,Ina,upland,D5(non-allophanic Andosol),,,,
LOC-P002-L077,PRJ-P002,Non.Bl0.77,,35.88351,137.97157,Japan,Nagano,Ina,upland,D5(non-allophanic Andosol),,,,
LOC-P002-L078,PRJ-P002,Non.Bl0.78,,35.88351,137.97157,Japan,Nagano,Ina,upland,D5(non-allophanic Andosol),,,,
LOC-P002-L079,PRJ-P002,Non.Bl2.79,,35.88351,137.97157,Japan,Nagano,Ina,upland,D5(non-allophanic Andosol),,,,
LOC-P002-L080,PRJ-P002,Non.Bl2.80,,35.88351,137.97157,Japan,Nagano,Ina,upland,D5(non-allophanic Andosol),,,,
LOC-P002-L081,PRJ-P002,Non.Bl3.81,,35.88351,137.97157,Japan,Nagano,Ina,upland,D5(non-allophanic Andosol),,,,
LOC-P002-L082,PRJ-P002,Non.Bl3.82,,35.88351,137.97157,Japan,Nagano,Ina,upland,D5(non-allophanic Andosol),,,,
LOC-P002-L083,PRJ-P002,Non.Bl0.83,,35.88351,137.97157,Japan,Nagano,Ina,upland,D5(non-allophanic Andosol),,,,
LOC-P002-L084,PRJ-P002,Non.Bl0.84,,35.88351,137.97157,Japan,Nagano,Ina,upland,D5(non-allophanic Andosol),,,,
LOC-P002-L085,PRJ-P002,Non.Non.85,,35.88351,137.97157,Japan,Nagano,Ina,upland,D5(non-allophanic Andosol),,,,
LOC-P002-L086,PRJ-P002,Non.Non.86,,35.88351,137.97157,Japan,Nagano,Ina,upland,D5(non-allophanic Andosol),,,,
LOC-P002-L087,PRJ-P002,Non.Bl3.87,,35.88351,137.97157,Japan,Nagano,Ina,upland,D5(non-allophanic Andosol),,,,
LOC-P002-L088,PRJ-P002,Non.Bl3.88,,35.88351,137.97157,Japan,Nagano,Ina,upland,D5(non-allophanic Andosol),,,,
LOC-P002-L089,PRJ-P002,Non.Che.89,,35.88351,137.97157,Japan,Nagano,Ina,upland,D5(non-allophanic Andosol),,,,
LOC-P002-L090,PRJ-P002,Non.Che.90,,35.88351,137.97157,Japan,Nagano,Ina,upland,D5(non-allophanic Andosol),,,,
LOC-P002-L091,PRJ-P002,Non.Bl1.91,,35.88351,137.97157,Japan,Nagano,Ina,upland,D5(non-allophanic Andosol),,,,
LOC-P002-L092,PRJ-P002,Non.Bl1.92,,35.88351,137.97157,Japan,Nagano,Ina,upland,D5(non-allophanic Andosol),,,,
LOC-P002-L093,PRJ-P002,Non.Non.93,,35.88351,137.97157,Japan,Nagano,Ina,upland,D5(non-allophanic Andosol),,,,
LOC-P002-L094,PRJ-P002,Non.Non.94,,35.88351,137.97157,Japan,Nagano,Ina,upland,D5(non-allophanic Andosol),,,,
LOC-P002-L095,PRJ-P002,Non.Che.95,,35.88351,137.97157,Japan,Nagano,Ina,upland,D5(non-allophanic Andosol),,,,
LOC-P002-L096,PRJ-P002,Non.Che.96,,35.88351,137.97157,Japan,Nagano,Ina,upland,D5(non-allophanic Andosol),,,,
LOC-P007-L001,PRJ-P007,Plot001,,43.07153429,141.3402466,Japan,Hokkaidou,Sapporo,upland,,,,,
LOC-P007-L002,PRJ-P007,Plot002,,43.07153429,141.3402466,Japan,Hokkaidou,Sapporo,upland,,,,,
LOC-P007-L003,PRJ-P007,Plot003,,43.07153429,141.3402466,Japan,Hokkaidou,Sapporo,upland,,,,,
LOC-P007-L004,PRJ-P007,Plot004,,43.07153429,141.3402466,Japan,Hokkaidou,Sapporo,upland,,,,,
LOC-P007-L005,PRJ-P007,Plot005,,43.07153429,141.3402466,Japan,Hokkaidou,Sapporo,upland,,,,,
LOC-P007-L006,PRJ-P007,Plot006,,43.07153429,141.3402466,Japan,Hokkaidou,Sapporo,upland,,,,,
LOC-P007-L007,PRJ-P007,Plot007,,43.07153429,141.3402466,Japan,Hokkaidou,Sapporo,upland,,,,,
LOC-P007-L008,PRJ-P007,Plot008,,43.07153429,141.3402466,Japan,Hokkaidou,Sapporo,upland,,,,,
LOC-P007-L009,PRJ-P007,Plot009,,43.07153429,141.3402466,Japan,Hokkaidou,Sapporo,upland,,,,,
LOC-P007-L010,PRJ-P007,Plot010,,43.07153429,141.3402466,Japan,Hokkaidou,Sapporo,upland,,,,,
LOC-P007-L011,PRJ-P007,Plot011,,43.07153429,141.3402466,Japan,Hokkaidou,Sapporo,upland,,,,,
LOC-P007-L012,PRJ-P007,Plot012,,43.07153429,141.3402466,Japan,Hokkaidou,Sapporo,upland,,,,,
LOC-P007-L013,PRJ-P007,Plot013,,37.71322593,140.3862953,Japan,Fukushima,Fukushima,upland,,,,,
LOC-P007-L014,PRJ-P007,Plot014,,37.71322593,140.3862953,Japan,Fukushima,Fukushima,upland,,,,,
LOC-P007-L015,PRJ-P007,Plot015,,37.71322593,140.3862953,Japan,Fukushima,Fukushima,upland,,,,,
LOC-P007-L016,PRJ-P007,Plot016,,37.71322593,140.3862953,Japan,Fukushima,Fukushima,upland,,,,,
LOC-P007-L017,PRJ-P007,Plot017,,37.71322593,140.3862953,Japan,Fukushima,Fukushima,upland,,,,,
LOC-P007-L018,PRJ-P007,Plot018,,37.71322593,140.3862953,Japan,Fukushima,Fukushima,upland,,,,,
LOC-P007-L019,PRJ-P007,Plot019,,37.71322593,140.3862953,Japan,Fukushima,Fukushima,upland,,,,,
LOC-P007-L020,PRJ-P007,Plot020,,37.71322593,140.3862953,Japan,Fukushima,Fukushima,upland,,,,,
LOC-P007-L021,PRJ-P007,Plot021,,37.71322593,140.3862953,Japan,Fukushima,Fukushima,upland,,,,,
LOC-P007-L022,PRJ-P007,Plot022,,37.71322593,140.3862953,Japan,Fukushima,Fukushima,upland,,,,,
LOC-P007-L023,PRJ-P007,Plot023,,37.71322593,140.3862953,Japan,Fukushima,Fukushima,upland,,,,,
LOC-P007-L024,PRJ-P007,Plot024,,37.71322593,140.3862953,Japan,Fukushima,Fukushima,upland,,,,,
LOC-P007-L025,PRJ-P007,Plot025,,37.43764171,138.8727676,Japan,Niigata,Nagaoka,upland,,,,,
LOC-P007-L026,PRJ-P007,Plot026,,37.43764171,138.8727676,Japan,Niigata,Nagaoka,upland,,,,,
LOC-P007-L027,PRJ-P007,Plot027,,37.43764171,138.8727676,Japan,Niigata,Nagaoka,upland,,,,,
LOC-P007-L028,PRJ-P007,Plot028,,37.43764171,138.8727676,Japan,Niigata,Nagaoka,upland,,,,,
LOC-P007-L029,PRJ-P007,Plot029,,37.43764171,138.8727676,Japan,Niigata,Nagaoka,upland,,,,,
LOC-P007-L030,PRJ-P007,Plot030,,37.43764171,138.8727676,Japan,Niigata,Nagaoka,upland,,,,,
LOC-P007-L031,PRJ-P007,Plot031,,37.43764171,138.8727676,Japan,Niigata,Nagaoka,upland,,,,,
LOC-P007-L032,PRJ-P007,Plot032,,37.43764171,138.8727676,Japan,Niigata,Nagaoka,upland,,,,,
LOC-P007-L033,PRJ-P007,Plot033,,37.43764171,138.8727676,Japan,Niigata,Nagaoka,upland,,,,,
LOC-P007-L034,PRJ-P007,Plot034,,37.43764171,138.8727676,Japan,Niigata,Nagaoka,upland,,,,,
LOC-P007-L035,PRJ-P007,Plot035,,37.43764171,138.8727676,Japan,Niigata,Nagaoka,upland,,,,,
LOC-P007-L036,PRJ-P007,Plot036,,37.43764171,138.8727676,Japan,Niigata,Nagaoka,upland,,,,,
LOC-P007-L037,PRJ-P007,Plot037,,34.80692228,136.4544934,Japan,Mie,Tsu,upland,,,,,
LOC-P007-L038,PRJ-P007,Plot038,,34.80692228,136.4544934,Japan,Mie,Tsu,upland,,,,,
LOC-P007-L039,PRJ-P007,Plot039,,34.80692228,136.4544934,Japan,Mie,Tsu,upland,,,,,
LOC-P007-L040,PRJ-P007,Plot040,,34.80692228,136.4544934,Japan,Mie,Tsu,upland,,,,,
LOC-P007-L041,PRJ-P007,Plot041,,34.80692228,136.4544934,Japan,Mie,Tsu,upland,,,,,
LOC-P007-L042,PRJ-P007,Plot042,,34.80692228,136.4544934,Japan,Mie,Tsu,upland,,,,,
LOC-P007-L043,PRJ-P007,Plot043,,34.80692228,136.4544934,Japan,Mie,Tsu,upland,,,,,
LOC-P007-L044,PRJ-P007,Plot044,,34.80692228,136.4544934,Japan,Mie,Tsu,upland,,,,,
LOC-P007-L045,PRJ-P007,Plot045,,34.80692228,136.4544934,Japan,Mie,Tsu,upland,,,,,
LOC-P007-L046,PRJ-P007,Plot046,,34.80692228,136.4544934,Japan,Mie,Tsu,upland,,,,,
LOC-P007-L047,PRJ-P007,Plot047,,34.80692228,136.4544934,Japan,Mie,Tsu,upland,,,,,
LOC-P007-L048,PRJ-P007,Plot048,,34.80692228,136.4544934,Japan,Mie,Tsu,upland,,,,,
LOC-P007-L049,PRJ-P007,Plot049,,33.5998878,130.212356,Japan,Fukuoka,Fukuoka,upland,,,,,
LOC-P007-L050,PRJ-P007,Plot050,,33.5998878,130.212356,Japan,Fukuoka,Fukuoka,upland,,,,,
LOC-P007-L051,PRJ-P007,Plot051,,33.5998878,130.212356,Japan,Fukuoka,Fukuoka,upland,,,,,
LOC-P007-L052,PRJ-P007,Plot052,,33.5998878,130.212356,Japan,Fukuoka,Fukuoka,upland,,,,,
LOC-P007-L053,PRJ-P007,Plot053,,33.5998878,130.212356,Japan,Fukuoka,Fukuoka,upland,,,,,
LOC-P007-L054,PRJ-P007,Plot054,,33.5998878,130.212356,Japan,Fukuoka,Fukuoka,upland,,,,,
LOC-P007-L055,PRJ-P007,Plot055,,33.5998878,130.212356,Japan,Fukuoka,Fukuoka,upland,,,,,
LOC-P007-L056,PRJ-P007,Plot056,,33.5998878,130.212356,Japan,Fukuoka,Fukuoka,upland,,,,,
LOC-P007-L057,PRJ-P007,Plot057,,33.5998878,130.212356,Japan,Fukuoka,Fukuoka,upland,,,,,
LOC-P007-L058,PRJ-P007,Plot058,,33.5998878,130.212356,Japan,Fukuoka,Fukuoka,upland,,,,,
LOC-P007-L059,PRJ-P007,Plot059,,33.5998878,130.212356,Japan,Fukuoka,Fukuoka,upland,,,,,
LOC-P007-L060,PRJ-P007,Plot060,,33.5998878,130.212356,Japan,Fukuoka,Fukuoka,upland,,,,,
LOC-P007-L061,PRJ-P007,Plot061,,37.47327268,140.382352,Japan,Fukushima,Koriyama,upland,,,,,
LOC-P007-L062,PRJ-P007,Plot062,,37.47327268,140.382352,Japan,Fukushima,Koriyama,upland,,,,,
LOC-P007-L063,PRJ-P007,Plot063,,37.47327268,140.382352,Japan,Fukushima,Koriyama,upland,,,,,
LOC-P007-L064,PRJ-P007,Plot064,,37.47327268,140.382352,Japan,Fukushima,Koriyama,upland,,,,,
LOC-P007-L065,PRJ-P007,Plot065,,37.47327268,140.382352,Japan,Fukushima,Koriyama,upland,,,,,
LOC-P007-L066,PRJ-P007,Plot066,,37.47327268,140.382352,Japan,Fukushima,Koriyama,upland,,,,,
LOC-P007-L067,PRJ-P007,Plot067,,37.47327268,140.382352,Japan,Fukushima,Koriyama,upland,,,,,
LOC-P007-L068,PRJ-P007,Plot068,,37.47327268,140.382352,Japan,Fukushima,Koriyama,upland,,,,,
LOC-P007-L069,PRJ-P007,Plot069,,37.47327268,140.382352,Japan,Fukushima,Koriyama,upland,,,,,
LOC-P007-L070,PRJ-P007,Plot070,,37.47327268,140.382352,Japan,Fukushima,Koriyama,upland,,,,,
LOC-P007-L071,PRJ-P007,Plot071,,37.47327268,140.382352,Japan,Fukushima,Koriyama,upland,,,,,
LOC-P007-L072,PRJ-P007,Plot072,,37.47327268,140.382352,Japan,Fukushima,Koriyama,upland,,,,,
LOC-P007-L073,PRJ-P007,Plot073,,37.47327268,140.382352,Japan,Fukushima,Koriyama,upland,,,,,
LOC-P007-L074,PRJ-P007,Plot074,,37.47327268,140.382352,Japan,Fukushima,Koriyama,upland,,,,,
LOC-P007-L075,PRJ-P007,Plot075,,37.47327268,140.382352,Japan,Fukushima,Koriyama,upland,,,,,
LOC-P007-L076,PRJ-P007,Plot076,,37.47327268,140.382352,Japan,Fukushima,Koriyama,upland,,,,,
LOC-P007-L077,PRJ-P007,Plot077,,37.47327268,140.382352,Japan,Fukushima,Koriyama,upland,,,,,
LOC-P007-L078,PRJ-P007,Plot078,,37.47327268,140.382352,Japan,Fukushima,Koriyama,upland,,,,,
LOC-P007-L079,PRJ-P007,Plot079,,37.47327268,140.382352,Japan,Fukushima,Koriyama,upland,,,,,
LOC-P007-L080,PRJ-P007,Plot080,,37.47327268,140.382352,Japan,Fukushima,Koriyama,upland,,,,,
LOC-P007-L081,PRJ-P007,Plot081,,37.47327268,140.382352,Japan,Fukushima,Koriyama,upland,,,,,
LOC-P007-L082,PRJ-P007,Plot082,,37.47327268,140.382352,Japan,Fukushima,Koriyama,upland,,,,,
LOC-P007-L083,PRJ-P007,Plot083,,37.47327268,140.382352,Japan,Fukushima,Koriyama,upland,,,,,
LOC-P007-L084,PRJ-P007,Plot084,,37.47327268,140.382352,Japan,Fukushima,Koriyama,upland,,,,,
LOC-P007-L085,PRJ-P007,Plot085,,37.47327268,140.382352,Japan,Fukushima,Koriyama,upland,,,,,
LOC-P007-L086,PRJ-P007,Plot086,,37.47327268,140.382352,Japan,Fukushima,Koriyama,upland,,,,,
LOC-P007-L087,PRJ-P007,Plot087,,37.47327268,140.382352,Japan,Fukushima,Koriyama,upland,,,,,
LOC-P007-L088,PRJ-P007,Plot088,,37.47327268,140.382352,Japan,Fukushima,Koriyama,upland,,,,,
LOC-P007-L089,PRJ-P007,Plot089,,37.47327268,140.382352,Japan,Fukushima,Koriyama,upland,,,,,
LOC-P007-L090,PRJ-P007,Plot090,,37.47327268,140.382352,Japan,Fukushima,Koriyama,upland,,,,,
LOC-P007-L091,PRJ-P007,Plot091,,37.47327268,140.382352,Japan,Fukushima,Koriyama,upland,,,,,
LOC-P007-L092,PRJ-P007,Plot092,,37.47327268,140.382352,Japan,Fukushima,Koriyama,upland,,,,,
LOC-P007-L093,PRJ-P007,Plot093,,37.47327268,140.382352,Japan,Fukushima,Koriyama,upland,,,,,
LOC-P007-L094,PRJ-P007,Plot094,,37.47327268,140.382352,Japan,Fukushima,Koriyama,upland,,,,,
LOC-P007-L095,PRJ-P007,Plot095,,37.47327268,140.382352,Japan,Fukushima,Koriyama,upland,,,,,
LOC-P007-L096,PRJ-P007,Plot096,,37.47327268,140.382352,Japan,Fukushima,Koriyama,upland,,,,,
LOC-P007-L097,PRJ-P007,Plot097,,37.47327268,140.382352,Japan,Fukushima,Koriyama,upland,,,,,
LOC-P007-L098,PRJ-P007,Plot098,,37.47327268,140.382352,Japan,Fukushima,Koriyama,upland,,,,,
LOC-P007-L099,PRJ-P007,Plot099,,37.47327268,140.382352,Japan,Fukushima,Koriyama,upland,,,,,
LOC-P007-L100,PRJ-P007,Plot100,,37.47327268,140.382352,Japan,Fukushima,Koriyama,upland,,,,,
LOC-P007-L101,PRJ-P007,Plot101,,37.47327268,140.382352,Japan,Fukushima,Koriyama,upland,,,,,
LOC-P007-L102,PRJ-P007,Plot102,,37.47327268,140.382352,Japan,Fukushima,Koriyama,upland,,,,,
LOC-P007-L103,PRJ-P007,Plot103,,37.47327268,140.382352,Japan,Fukushima,Koriyama,upland,,,,,
LOC-P007-L104,PRJ-P007,Plot104,,37.47327268,140.382352,Japan,Fukushima,Koriyama,upland,,,,,
LOC-P007-L105,PRJ-P007,Plot105,,37.47327268,140.382352,Japan,Fukushima,Koriyama,upland,,,,,
LOC-P007-L106,PRJ-P007,Plot106,,37.47327268,140.382352,Japan,Fukushima,Koriyama,upland,,,,,
LOC-P007-L107,PRJ-P007,Plot107,,37.47327268,140.382352,Japan,Fukushima,Koriyama,upland,,,,,
LOC-P007-L108,PRJ-P007,Plot108,,37.47327268,140.382352,Japan,Fukushima,Koriyama,upland,,,,,
LOC-P007-L109,PRJ-P007,Plot109,,37.47327268,140.382352,Japan,Fukushima,Koriyama,upland,,,,,
LOC-P007-L110,PRJ-P007,Plot110,,37.47327268,140.382352,Japan,Fukushima,Koriyama,upland,,,,,
LOC-P007-L111,PRJ-P007,Plot111,,37.47327268,140.382352,Japan,Fukushima,Koriyama,upland,,,,,
LOC-P007-L112,PRJ-P007,Plot112,,37.47327268,140.382352,Japan,Fukushima,Koriyama,upland,,,,,
LOC-P007-L113,PRJ-P007,Plot113,,37.47327268,140.382352,Japan,Fukushima,Koriyama,upland,,,,,
LOC-P007-L114,PRJ-P007,Plot114,,37.47327268,140.382352,Japan,Fukushima,Koriyama,upland,,,,,
LOC-P007-L115,PRJ-P007,Plot115,,37.47327268,140.382352,Japan,Fukushima,Koriyama,upland,,,,,
LOC-P007-L116,PRJ-P007,Plot116,,37.47327268,140.382352,Japan,Fukushima,Koriyama,upland,,,,,
LOC-P007-L117,PRJ-P007,Plot117,,37.47327268,140.382352,Japan,Fukushima,Koriyama,upland,,,,,
LOC-P007-L118,PRJ-P007,Plot118,,37.47327268,140.382352,Japan,Fukushima,Koriyama,upland,,,,,
LOC-P007-L119,PRJ-P007,Plot119,,37.47327268,140.382352,Japan,Fukushima,Koriyama,upland,,,,,
LOC-P007-L120,PRJ-P007,Plot120,,37.47327268,140.382352,Japan,Fukushima,Koriyama,upland,,,,,
LOC-P007-L121,PRJ-P007,Plot121,,37.47327268,140.382352,Japan,Fukushima,Koriyama,upland,,,,,
LOC-P007-L122,PRJ-P007,Plot122,,37.47327268,140.382352,Japan,Fukushima,Koriyama,upland,,,,,
LOC-P007-L123,PRJ-P007,Plot123,,37.47327268,140.382352,Japan,Fukushima,Koriyama,upland,,,,,
LOC-P007-L124,PRJ-P007,Plot124,,37.47327268,140.382352,Japan,Fukushima,Koriyama,upland,,,,,
LOC-P007-L125,PRJ-P007,Plot125,,37.47327268,140.382352,Japan,Fukushima,Koriyama,upland,,,,,
LOC-P007-L126,PRJ-P007,Plot126,,37.47327268,140.382352,Japan,Fukushima,Koriyama,upland,,,,,
LOC-P007-L127,PRJ-P007,Plot127,,37.47327268,140.382352,Japan,Fukushima,Koriyama,upland,,,,,
LOC-P007-L128,PRJ-P007,Plot128,,37.47327268,140.382352,Japan,Fukushima,Koriyama,upland,,,,,
LOC-P007-L129,PRJ-P007,Plot129,,37.47327268,140.382352,Japan,Fukushima,Koriyama,upland,,,,,
LOC-P007-L130,PRJ-P007,Plot130,,37.47327268,140.382352,Japan,Fukushima,Koriyama,upland,,,,,
LOC-P007-L131,PRJ-P007,Plot131,,37.47327268,140.382352,Japan,Fukushima,Koriyama,upland,,,,,
LOC-P007-L132,PRJ-P007,Plot132,,37.47327268,140.382352,Japan,Fukushima,Koriyama,upland,,,,,
LOC-P007-L133,PRJ-P007,Plot133,,37.47327268,140.382352,Japan,Fukushima,Koriyama,upland,,,,,
LOC-P007-L134,PRJ-P007,Plot134,,37.47327268,140.382352,Japan,Fukushima,Koriyama,upland,,,,,
LOC-P007-L135,PRJ-P007,Plot135,,37.47327268,140.382352,Japan,Fukushima,Koriyama,upland,,,,,
LOC-P007-L136,PRJ-P007,,,43.07153429,141.3402466,Japan,Hokkaidou,Sapporo,upland,,,,,
LOC-P007-L137,PRJ-P007,,,43.07153429,141.3402466,Japan,Hokkaidou,Sapporo,upland,,,,,
LOC-P007-L138,PRJ-P007,,,43.07153429,141.3402466,Japan,Hokkaidou,Sapporo,upland,,,,,
LOC-P007-L139,PRJ-P007,,,43.07153429,141.3402466,Japan,Hokkaidou,Sapporo,upland,,,,,
LOC-P007-L140,PRJ-P007,,,43.07153429,141.3402466,Japan,Hokkaidou,Sapporo,upland,,,,,
LOC-P007-L141,PRJ-P007,,,43.07153429,141.3402466,Japan,Hokkaidou,Sapporo,upland,,,,,
LOC-P007-L142,PRJ-P007,,,43.07153429,141.3402466,Japan,Hokkaidou,Sapporo,upland,,,,,
LOC-P007-L143,PRJ-P007,,,43.07153429,141.3402466,Japan,Hokkaidou,Sapporo,upland,,,,,
LOC-P007-L144,PRJ-P007,,,43.07153429,141.3402466,Japan,Hokkaidou,Sapporo,upland,,,,,
LOC-P007-L145,PRJ-P007,,,43.07153429,141.3402466,Japan,Hokkaidou,Sapporo,upland,,,,,
LOC-P007-L146,PRJ-P007,,,43.07153429,141.3402466,Japan,Hokkaidou,Sapporo,upland,,,,,
LOC-P007-L147,PRJ-P007,,,43.07153429,141.3402466,Japan,Hokkaidou,Sapporo,upland,,,,,
LOC-P007-L148,PRJ-P007,,,43.07153429,141.3402466,Japan,Hokkaidou,Sapporo,upland,,,,,
LOC-P007-L149,PRJ-P007,,,43.07153429,141.3402466,Japan,Hokkaidou,Sapporo,upland,,,,,
LOC-P007-L150,PRJ-P007,,,43.07153429,141.3402466,Japan,Hokkaidou,Sapporo,upland,,,,,
LOC-P007-L151,PRJ-P007,,,43.07153429,141.3402466,Japan,Hokkaidou,Sapporo,upland,,,,,
LOC-P007-L152,PRJ-P007,,,43.07153429,141.3402466,Japan,Hokkaidou,Sapporo,upland,,,,,
LOC-P007-L153,PRJ-P007,,,43.07153429,141.3402466,Japan,Hokkaidou,Sapporo,upland,,,,,
LOC-P007-L154,PRJ-P007,,,43.07153429,141.3402466,Japan,Hokkaidou,Sapporo,upland,,,,,
LOC-P007-L155,PRJ-P007,,,43.07153429,141.3402466,Japan,Hokkaidou,Sapporo,upland,,,,,
LOC-P007-L156,PRJ-P007,,,43.07153429,141.3402466,Japan,Hokkaidou,Sapporo,upland,,,,,
LOC-P007-L157,PRJ-P007,,,37.71322593,140.3862953,Japan,Fukushima,Fukushima,upland,,,,,
LOC-P007-L158,PRJ-P007,,,37.71322593,140.3862953,Japan,Fukushima,Fukushima,upland,,,,,
LOC-P007-L159,PRJ-P007,,,37.71322593,140.3862953,Japan,Fukushima,Fukushima,upland,,,,,
LOC-P007-L160,PRJ-P007,,,37.71322593,140.3862953,Japan,Fukushima,Fukushima,upland,,,,,
LOC-P007-L161,PRJ-P007,,,37.71322593,140.3862953,Japan,Fukushima,Fukushima,upland,,,,,
LOC-P007-L162,PRJ-P007,,,37.71322593,140.3862953,Japan,Fukushima,Fukushima,upland,,,,,
LOC-P007-L163,PRJ-P007,,,37.71322593,140.3862953,Japan,Fukushima,Fukushima,upland,,,,,
LOC-P007-L164,PRJ-P007,,,37.71322593,140.3862953,Japan,Fukushima,Fukushima,upland,,,,,
LOC-P007-L165,PRJ-P007,,,37.71322593,140.3862953,Japan,Fukushima,Fukushima,upland,,,,,
LOC-P007-L166,PRJ-P007,,,37.71322593,140.3862953,Japan,Fukushima,Fukushima,upland,,,,,
LOC-P007-L167,PRJ-P007,,,37.71322593,140.3862953,Japan,Fukushima,Fukushima,upland,,,,,
LOC-P007-L168,PRJ-P007,,,37.71322593,140.3862953,Japan,Fukushima,Fukushima,upland,,,,,
LOC-P007-L169,PRJ-P007,,,37.71322593,140.3862953,Japan,Fukushima,Fukushima,upland,,,,,
LOC-P007-L170,PRJ-P007,,,37.71322593,140.3862953,Japan,Fukushima,Fukushima,upland,,,,,
LOC-P007-L171,PRJ-P007,,,37.71322593,140.3862953,Japan,Fukushima,Fukushima,upland,,,,,
LOC-P007-L172,PRJ-P007,,,37.71322593,140.3862953,Japan,Fukushima,Fukushima,upland,,,,,
LOC-P007-L173,PRJ-P007,,,37.71322593,140.3862953,Japan,Fukushima,Fukushima,upland,,,,,
LOC-P007-L174,PRJ-P007,,,37.71322593,140.3862953,Japan,Fukushima,Fukushima,upland,,,,,
LOC-P007-L175,PRJ-P007,,,37.43764171,138.8727676,Japan,Niigata,Nagaoka,upland,,,,,
LOC-P007-L176,PRJ-P007,,,37.43764171,138.8727676,Japan,Niigata,Nagaoka,upland,,,,,
LOC-P007-L177,PRJ-P007,,,37.43764171,138.8727676,Japan,Niigata,Nagaoka,upland,,,,,
LOC-P007-L178,PRJ-P007,,,37.43764171,138.8727676,Japan,Niigata,Nagaoka,upland,,,,,
LOC-P007-L179,PRJ-P007,,,37.43764171,138.8727676,Japan,Niigata,Nagaoka,upland,,,,,
LOC-P007-L180,PRJ-P007,,,37.43764171,138.8727676,Japan,Niigata,Nagaoka,upland,,,,,
LOC-P007-L181,PRJ-P007,,,37.43764171,138.8727676,Japan,Niigata,Nagaoka,upland,,,,,
LOC-P007-L182,PRJ-P007,,,37.43764171,138.8727676,Japan,Niigata,Nagaoka,upland,,,,,
LOC-P007-L183,PRJ-P007,,,37.43764171,138.8727676,Japan,Niigata,Nagaoka,upland,,,,,
LOC-P007-L184,PRJ-P007,,,37.43764171,138.8727676,Japan,Niigata,Nagaoka,upland,,,,,
LOC-P007-L185,PRJ-P007,,,37.43764171,138.8727676,Japan,Niigata,Nagaoka,upland,,,,,
LOC-P007-L186,PRJ-P007,,,37.43764171,138.8727676,Japan,Niigata,Nagaoka,upland,,,,,
LOC-P007-L187,PRJ-P007,,,37.43764171,138.8727676,Japan,Niigata,Nagaoka,upland,,,,,
LOC-P007-L188,PRJ-P007,,,37.43764171,138.8727676,Japan,Niigata,Nagaoka,upland,,,,,
LOC-P007-L189,PRJ-P007,,,37.43764171,138.8727676,Japan,Niigata,Nagaoka,upland,,,,,
LOC-P007-L190,PRJ-P007,,,33.5998878,130.212356,Japan,Fukuoka,Fukuoka,upland,,,,,
LOC-P007-L191,PRJ-P007,,,33.5998878,130.212356,Japan,Fukuoka,Fukuoka,upland,,,,,
LOC-P007-L192,PRJ-P007,,,33.5998878,130.212356,Japan,Fukuoka,Fukuoka,upland,,,,,
LOC-P007-L193,PRJ-P007,,,33.5998878,130.212356,Japan,Fukuoka,Fukuoka,upland,,,,,
LOC-P007-L194,PRJ-P007,,,33.5998878,130.212356,Japan,Fukuoka,Fukuoka,upland,,,,,
LOC-P007-L195,PRJ-P007,,,33.5998878,130.212356,Japan,Fukuoka,Fukuoka,upland,,,,,
LOC-P007-L196,PRJ-P007,,,33.5998878,130.212356,Japan,Fukuoka,Fukuoka,upland,,,,,
LOC-P007-L197,PRJ-P007,,,33.5998878,130.212356,Japan,Fukuoka,Fukuoka,upland,,,,,
LOC-P007-L198,PRJ-P007,,,33.5998878,130.212356,Japan,Fukuoka,Fukuoka,upland,,,,,
LOC-P007-L199,PRJ-P007,,,33.5998878,130.212356,Japan,Fukuoka,Fukuoka,upland,,,,,
LOC-P007-L200,PRJ-P007,,,33.5998878,130.212356,Japan,Fukuoka,Fukuoka,upland,,,,,
LOC-P007-L201,PRJ-P007,,,33.5998878,130.212356,Japan,Fukuoka,Fukuoka,upland,,,,,
LOC-P007-L202,PRJ-P007,,,33.5998878,130.212356,Japan,Fukuoka,Fukuoka,upland,,,,,
LOC-P007-L203,PRJ-P007,,,33.5998878,130.212356,Japan,Fukuoka,Fukuoka,upland,,,,,
LOC-P007-L204,PRJ-P007,,,33.5998878,130.212356,Japan,Fukuoka,Fukuoka,upland,,,,,
LOC-P007-L205,PRJ-P007,,,37.47327268,140.382352,Japan,Fukushima,Koriyama,upland,,,,,
LOC-P007-L206,PRJ-P007,,,37.47327268,140.382352,Japan,Fukushima,Koriyama,upland,,,,,
LOC-P007-L207,PRJ-P007,,,37.47327268,140.382352,Japan,Fukushima,Koriyama,upland,,,,,
LOC-P007-L208,PRJ-P007,,,37.47327268,140.382352,Japan,Fukushima,Koriyama,upland,,,,,
LOC-P007-L209,PRJ-P007,,,37.47327268,140.382352,Japan,Fukushima,Koriyama,upland,,,,,
LOC-P007-L210,PRJ-P007,,,37.47327268,140.382352,Japan,Fukushima,Koriyama,upland,,,,,
LOC-P007-L211,PRJ-P007,,,37.47327268,140.382352,Japan,Fukushima,Koriyama,upland,,,,,
LOC-P007-L212,PRJ-P007,,,37.47327268,140.382352,Japan,Fukushima,Koriyama,upland,,,,,
LOC-P007-L213,PRJ-P007,,,37.47327268,140.382352,Japan,Fukushima,Koriyama,upland,,,,,
LOC-P007-L214,PRJ-P007,,,37.47327268,140.382352,Japan,Fukushima,Koriyama,upland,,,,,
LOC-P007-L215,PRJ-P007,,,37.47327268,140.382352,Japan,Fukushima,Koriyama,upland,,,,,
LOC-P007-L216,PRJ-P007,,,37.47327268,140.382352,Japan,Fukushima,Koriyama,upland,,,,,
LOC-P007-L217,PRJ-P007,,,37.47327268,140.382352,Japan,Fukushima,Koriyama,upland,,,,,
LOC-P007-L218,PRJ-P007,,,37.47327268,140.382352,Japan,Fukushima,Koriyama,upland,,,,,
LOC-P007-L219,PRJ-P007,,,37.47327268,140.382352,Japan,Fukushima,Koriyama,upland,,,,,
LOC-P007-L220,PRJ-P007,,,37.47327268,140.382352,Japan,Fukushima,Koriyama,upland,,,,,
LOC-P007-L221,PRJ-P007,,,37.47327268,140.382352,Japan,Fukushima,Koriyama,upland,,,,,
LOC-P007-L222,PRJ-P007,,,37.47327268,140.382352,Japan,Fukushima,Koriyama,upland,,,,,
LOC-P007-L223,PRJ-P007,,,37.47327268,140.382352,Japan,Fukushima,Koriyama,upland,,,,,
LOC-P007-L224,PRJ-P007,,,37.47327268,140.382352,Japan,Fukushima,Koriyama,upland,,,,,
LOC-P007-L225,PRJ-P007,,,37.47327268,140.382352,Japan,Fukushima,Koriyama,upland,,,,,
LOC-P007-L226,PRJ-P007,,,37.47327268,140.382352,Japan,Fukushima,Koriyama,upland,,,,,
LOC-P007-L227,PRJ-P007,,,37.47327268,140.382352,Japan,Fukushima,Koriyama,upland,,,,,
LOC-P007-L228,PRJ-P007,,,37.47327268,140.382352,Japan,Fukushima,Koriyama,upland,,,,,
LOC-P007-L229,PRJ-P007,,,37.47327268,140.382352,Japan,Fukushima,Koriyama,upland,,,,,
LOC-P007-L230,PRJ-P007,,,37.47327268,140.382352,Japan,Fukushima,Koriyama,upland,,,,,
LOC-P007-L231,PRJ-P007,,,37.47327268,140.382352,Japan,Fukushima,Koriyama,upland,,,,,
LOC-P007-L232,PRJ-P007,,,37.47327268,140.382352,Japan,Fukushima,Koriyama,upland,,,,,
LOC-P007-L233,PRJ-P007,,,37.47327268,140.382352,Japan,Fukushima,Koriyama,upland,,,,,
LOC-P007-L234,PRJ-P007,,,37.47327268,140.382352,Japan,Fukushima,Koriyama,upland,,,,,
LOC-P007-L235,PRJ-P007,,,37.47327268,140.382352,Japan,Fukushima,Koriyama,upland,,,,,
LOC-P007-L236,PRJ-P007,,,37.47327268,140.382352,Japan,Fukushima,Koriyama,upland,,,,,
LOC-P007-L237,PRJ-P007,,,37.47327268,140.382352,Japan,Fukushima,Koriyama,upland,,,,,
LOC-P007-L238,PRJ-P007,,,37.47327268,140.382352,Japan,Fukushima,Koriyama,upland,,,,,
LOC-P007-L239,PRJ-P007,,,37.47327268,140.382352,Japan,Fukushima,Koriyama,upland,,,,,
LOC-P007-L240,PRJ-P007,,,37.47327268,140.382352,Japan,Fukushima,Koriyama,upland,,,,,
LOC-P007-L241,PRJ-P007,,,37.47327268,140.382352,Japan,Fukushima,Koriyama,upland,,,,,
LOC-P007-L242,PRJ-P007,,,37.47327268,140.382352,Japan,Fukushima,Koriyama,upland,,,,,
LOC-P007-L243,PRJ-P007,,,37.47327268,140.382352,Japan,Fukushima,Koriyama,upland,,,,,
LOC-P007-L244,PRJ-P007,,,37.47327268,140.382352,Japan,Fukushima,Koriyama,upland,,,,,
LOC-P007-L245,PRJ-P007,,,37.47327268,140.382352,Japan,Fukushima,Koriyama,upland,,,,,
LOC-P007-L246,PRJ-P007,,,37.47327268,140.382352,Japan,Fukushima,Koriyama,upland,,,,,
LOC-P007-L247,PRJ-P007,,,37.47327268,140.382352,Japan,Fukushima,Koriyama,upland,,,,,
LOC-P007-L248,PRJ-P007,,,37.47327268,140.382352,Japan,Fukushima,Koriyama,upland,,,,,
LOC-P007-L249,PRJ-P007,,,37.47327268,140.382352,Japan,Fukushima,Koriyama,upland,,,,,
LOC-P007-L250,PRJ-P007,,,37.47327268,140.382352,Japan,Fukushima,Koriyama,upland,,,,,
LOC-P007-L251,PRJ-P007,,,37.47327268,140.382352,Japan,Fukushima,Koriyama,upland,,,,,
LOC-P007-L252,PRJ-P007,,,37.47327268,140.382352,Japan,Fukushima,Koriyama,upland,,,,,
LOC-P007-L253,PRJ-P007,,,37.47327268,140.382352,Japan,Fukushima,Koriyama,upland,,,,,
LOC-P007-L254,PRJ-P007,,,37.47327268,140.382352,Japan,Fukushima,Koriyama,upland,,,,,
LOC-P007-L255,PRJ-P007,,,37.47327268,140.382352,Japan,Fukushima,Koriyama,upland,,,,,
LOC-P007-L256,PRJ-P007,,,37.47327268,140.382352,Japan,Fukushima,Koriyama,upland,,,,,
LOC-P007-L257,PRJ-P007,,,37.47327268,140.382352,Japan,Fukushima,Koriyama,upland,,,,,
LOC-P007-L258,PRJ-P007,,,37.47327268,140.382352,Japan,Fukushima,Koriyama,upland,,,,,
LOC-P007-L259,PRJ-P007,,,37.47327268,140.382352,Japan,Fukushima,Koriyama,upland,,,,,
LOC-P007-L260,PRJ-P007,,,37.47327268,140.382352,Japan,Fukushima,Koriyama,upland,,,,,
LOC-P007-L261,PRJ-P007,,,37.47327268,140.382352,Japan,Fukushima,Koriyama,upland,,,,,
LOC-P007-L262,PRJ-P007,,,37.47327268,140.382352,Japan,Fukushima,Koriyama,upland,,,,,
LOC-P007-L263,PRJ-P007,,,37.47327268,140.382352,Japan,Fukushima,Koriyama,upland,,,,,
LOC-P007-L264,PRJ-P007,,,37.47327268,140.382352,Japan,Fukushima,Koriyama,upland,,,,,
LOC-P007-L265,PRJ-P007,,,37.47327268,140.382352,Japan,Fukushima,Koriyama,upland,,,,,
LOC-P007-L266,PRJ-P007,,,37.47327268,140.382352,Japan,Fukushima,Koriyama,upland,,,,,
LOC-P007-L267,PRJ-P007,,,37.47327268,140.382352,Japan,Fukushima,Koriyama,upland,,,,,
LOC-P007-L268,PRJ-P007,,,37.47327268,140.382352,Japan,Fukushima,Koriyama,upland,,,,,
LOC-P007-L269,PRJ-P007,,,37.47327268,140.382352,Japan,Fukushima,Koriyama,upland,,,,,
LOC-P007-L270,PRJ-P007,,,37.47327268,140.382352,Japan,Fukushima,Koriyama,upland,,,,,
LOC-P007-L271,PRJ-P007,,,37.47327268,140.382352,Japan,Fukushima,Koriyama,upland,,,,,
LOC-P007-L272,PRJ-P007,,,37.47327268,140.382352,Japan,Fukushima,Koriyama,upland,,,,,
LOC-P007-L273,PRJ-P007,,,37.47327268,140.382352,Japan,Fukushima,Koriyama,upland,,,,,
LOC-P007-L274,PRJ-P007,,,37.47327268,140.382352,Japan,Fukushima,Koriyama,upland,,,,,
LOC-P007-L275,PRJ-P007,,,37.47327268,140.382352,Japan,Fukushima,Koriyama,upland,,,,,
LOC-P007-L276,PRJ-P007,,,37.47327268,140.382352,Japan,Fukushima,Koriyama,upland,,,,,
LOC-P010-L001,PRJ-P010,FukushimaUniv-prok-1,遠藤氏1　休耕田,37.181426,140.980911,Japan,Fukushima,Iwaki,,,,,,
LOC-P010-L002,PRJ-P010,FukushimaUniv-prok-2,遠藤氏2　休耕田,37.181426,140.980911,Japan,Fukushima,Iwaki,,,,,,
LOC-P010-L003,PRJ-P010,FukushimaUniv-prok-3,遠藤氏3　休耕田,37.181426,140.980911,Japan,Fukushima,Iwaki,,,,,,
LOC-P010-L004,PRJ-P010,FukushimaUniv-prok-4,遠藤氏4　休耕田,37.181426,140.980911,Japan,Fukushima,Iwaki,,,,,,
LOC-P010-L005,PRJ-P010,FukushimaUniv-prok-5,遠藤氏5　南大沢1,37.181426,140.980911,Japan,Fukushima,Iwaki,,,,,,
LOC-P010-L006,PRJ-P010,FukushimaUniv-prok-6,遠藤氏6　南大沢3,37.181426,140.980911,Japan,Fukushima,Iwaki,,,,,,
LOC-P010-L007,PRJ-P010,FukushimaUniv-prok-7,遠藤氏7　南大沢5,37.181426,140.980911,Japan,Fukushima,Iwaki,,,,,,
LOC-P010-L008,PRJ-P010,FukushimaUniv-prok-8,遠藤氏8　北大沢1,37.181426,140.980911,Japan,Fukushima,Iwaki,,,,,,
LOC-P010-L009,PRJ-P010,FukushimaUniv-prok-9,遠藤氏9　北大沢3,37.181426,140.980911,Japan,Fukushima,Iwaki,,,,,,
LOC-P010-L010,PRJ-P010,FukushimaUniv-prok-10,遠藤氏10　北大沢6,37.181426,140.980911,Japan,Fukushima,Iwaki,,,,,,
LOC-P010-L011,PRJ-P010,FukushimaUniv-prok-11,遠藤氏11　北大沢7,37.181426,140.980911,Japan,Fukushima,Iwaki,,,,,,
LOC-P010-L012,PRJ-P010,FukushimaUniv-prok-12,遠藤氏13　北大沢9,37.181426,140.980911,Japan,Fukushima,Iwaki,,,,,,
LOC-P010-L013,PRJ-P010,FukushimaUniv-prok-13,遠藤氏15　新屋敷1,37.181426,140.980911,Japan,Fukushima,Iwaki,,,,,,
LOC-P010-L014,PRJ-P010,FukushimaUniv-prok-14,遠藤氏16　新屋敷2,37.181426,140.980911,Japan,Fukushima,Iwaki,,,,,,
LOC-P010-L015,PRJ-P010,FukushimaUniv-prok-15,遠藤氏17　牛沼,37.181426,140.980911,Japan,Fukushima,Iwaki,,,,,,
LOC-P010-L016,PRJ-P010,FukushimaUniv-prok-16,遠藤氏18　中川原1,37.181426,140.980911,Japan,Fukushima,Iwaki,,,,,,
LOC-P010-L017,PRJ-P010,FukushimaUniv-prok-17,遠藤氏19　中川原2,37.181426,140.980911,Japan,Fukushima,Iwaki,,,,,,
LOC-P010-L018,PRJ-P010,FukushimaUniv-prok-18,遠藤氏20　中川原3,37.181426,140.980911,Japan,Fukushima,Iwaki,,,,,,
LOC-P010-L019,PRJ-P010,FukushimaUniv-prok-19,無の会1　堆肥舎隣,37.440794,139.812808,Japan,Fukushima,Aizu,,,,,,
LOC-P010-L020,PRJ-P010,FukushimaUniv-prok-20,無の会２ 堆肥舎隣,37.440794,139.812808,Japan,Fukushima,Aizu,,,,,,
LOC-P010-L021,PRJ-P010,FukushimaUniv-prok-21,無の会３ 堆肥舎隣,37.440794,139.812808,Japan,Fukushima,Aizu,,,,,,
LOC-P010-L022,PRJ-P010,FukushimaUniv-prok-22,無の会４ 堆肥舎隣,37.440794,139.812808,Japan,Fukushima,Aizu,,,,,,
LOC-P010-L023,PRJ-P010,FukushimaUniv-prok-23,無の会５ ミツバチ畑,37.441488,139.813752,Japan,Fukushima,Aizu,,,,,,
LOC-P010-L024,PRJ-P010,FukushimaUniv-prok-24,無の会６ ミツバチ畑,37.441488,139.813752,Japan,Fukushima,Aizu,,,,,,
LOC-P010-L025,PRJ-P010,FukushimaUniv-prok-25,無の会７ 栗林隣,37.441365,139.81418,Japan,Fukushima,Aizu,,,,,,
LOC-P010-L026,PRJ-P010,FukushimaUniv-prok-26,あじま農園1　自然栽培,,,,,,,,,,,
LOC-P010-L027,PRJ-P010,FukushimaUniv-prok-27,あじま農園2　自然栽培,,,,,,,,,,,
LOC-P010-L028,PRJ-P010,FukushimaUniv-prok-28,あじま農園3　慣行栽培,,,,,,,,,,,
LOC-P010-L029,PRJ-P010,FukushimaUniv-prok-29,くしだ農園1　有機栽培,,,,,,,,,,,
LOC-P010-L030,PRJ-P010,FukushimaUniv-prok-30,くしだ農園2　特別栽培,,,,,,,,,,,
LOC-P010-L031,PRJ-P010,FukushimaUniv-prok-31,くしだ農園3　慣行栽培,,,,,,,,,,,
LOC-P010-L032,PRJ-P010,FukushimaUniv-prok-32,園部農園1　有機栽培,,,,,,,,,,,
LOC-P010-L033,PRJ-P010,FukushimaUniv-prok-33,園部農園2　慣行栽培,,,,,,,,,,,
LOC-P010-L034,PRJ-P010,FukushimaUniv-prok-34,遠藤農園1　北大沢（自然）,,,,,,,,,,,
LOC-P010-L035,PRJ-P010,FukushimaUniv-prok-35,遠藤農園2　牛沼（有機）,,,,,,,,,,,
LOC-P010-L036,PRJ-P010,FukushimaUniv-prok-36,遠藤農園3　北大沢（慣行）,,,,,,,,,,,
LOC-P010-L037,PRJ-P010,FukushimaUniv-prok-37,佐藤農園1　有機栽培,,,,,,,,,,,
LOC-P010-L038,PRJ-P010,FukushimaUniv-prok-38,佐藤農園2　慣行栽培,,,,,,,,,,,
LOC-P010-L039,PRJ-P010,Riken-prok-1,とやまのめ3　手前ソーラー横,36.736186,137.119865,Japan,Toyama,Imizu,,,,,,
LOC-P010-L040,PRJ-P010,Riken-prok-2,とやまのめ1　メイン（奥）,36.736515,137.119707,Japan,Toyama,Imizu,,,,,,
LOC-P010-L041,PRJ-P010,Riken-prok-3,とやまのめ2　サブ（奥）,36.736764,137.11956,Japan,Toyama,Imizu,,,,,,
LOC-P010-L042,PRJ-P010,Riken-prok-4,宇和島　海側1（草刈後）,,,,,,,,,,,
LOC-P010-L043,PRJ-P010,Riken-prok-5,宇和島　海側2（草刈後）,,,,,,,,,,,
LOC-P010-L044,PRJ-P010,Riken-prok-6,宇和島　海側3（草刈後）,,,,,,,,,,,
LOC-P010-L045,PRJ-P010,Riken-prok-7,宇和島　海側4（放棄地）,,,,,,,,,,,
LOC-P010-L046,PRJ-P010,Riken-prok-8,宇和島　海側5（放棄地）,,,,,,,,,,,
LOC-P010-L047,PRJ-P010,Riken-prok-9,段畑（ダイズ）,,,,,,,,,,,
LOC-P010-L048,PRJ-P010,Riken-prok-10,段畑（パーマ）,,,,,,,,,,,
LOC-P010-L049,PRJ-P010,,楪園芸1　マイコス有,,,,,,,,,,,
LOC-P010-L050,PRJ-P010,,楪園芸2　対照区,,,,,,,,,,,
